{
  "type": "FeatureCollection",
  "features": [
    {
      "type": "Feature",
      "properties": {
        "norad_id": 37978,
        "name": "COSMOS 2251 DEB",
        "group": "cosmos-2251-debris",
        "lat": -49.58568556330383,
        "lon": -70.54601433010794,
        "alt_km": 318.85424729563965,
        "timestamp": "2025-12-12T09:49:09.130029+00:00",
        "meta_object_name": "COSMOS 2251 DEB",
        "meta_object_id": "1993-036BQD",
        "meta_epoch": "2025-11-19T05:08:53.100672",
        "meta_mean_motion": 15.61137081,
        "meta_eccentricity": 0.00148985,
        "meta_inclination": 74.0238,
        "meta_ra_of_asc_node": 142.2198,
        "meta_arg_of_pericenter": 140.9849,
        "meta_mean_anomaly": 219.2448,
        "meta_ephemeris_type": 0,
        "meta_classification_type": "U",
        "meta_norad_cat_id": 37978,
        "meta_element_set_no": 999,
        "meta_rev_at_epoch": 8032,
        "meta_bstar": 0.0043958825,
        "meta_mean_motion_dot": 0.0039117,
        "meta_mean_motion_ddot": 0,
        "tle_line1": "1 37978U 93036BQD 25323.21450348  .00391170  00000+0  43959-2 0  9999",
        "tle_line2": "2 37978  74.0238 142.2198 0014898 140.9849 219.2448 15.61137081 80328"
      },
      "geometry": {
        "type": "Point",
        "coordinates": [
          -70.54601433010794,
          -49.58568556330383
        ]
      }
    },
    {
      "type": "Feature",
      "properties": {
        "norad_id": 37985,
        "name": "COSMOS 2251 DEB",
        "group": "cosmos-2251-debris",
        "lat": -40.85498989398886,
        "lon": -107.99945523581223,
        "alt_km": 775.0652114133609,
        "timestamp": "2025-12-12T09:49:09.130039+00:00",
        "meta_object_name": "COSMOS 2251 DEB",
        "meta_object_id": "1993-036BQL",
        "meta_epoch": "2025-12-10T12:51:29.994048",
        "meta_mean_motion": 14.35481838,
        "meta_eccentricity": 0.0020726,
        "meta_inclination": 74.0254,
        "meta_ra_of_asc_node": 269.7813,
        "meta_arg_of_pericenter": 33.1877,
        "meta_mean_anomaly": 327.0571,
        "meta_ephemeris_type": 0,
        "meta_classification_type": "U",
        "meta_norad_cat_id": 37985,
        "meta_element_set_no": 999,
        "meta_rev_at_epoch": 64885,
        "meta_bstar": 9.1575e-05,
        "meta_mean_motion_dot": 2.38e-06,
        "meta_mean_motion_ddot": 0,
        "tle_line1": "1 37985U 93036BQL 25344.53576382  .00000238  00000+0  91575-4 0  9993",
        "tle_line2": "2 37985  74.0254 269.7813 0020726  33.1877 327.0571 14.35481838648859"
      },
      "geometry": {
        "type": "Point",
        "coordinates": [
          -107.99945523581223,
          -40.85498989398886
        ]
      }
    },
    {
      "type": "Feature",
      "properties": {
        "norad_id": 37988,
        "name": "COSMOS 2251 DEB",
        "group": "cosmos-2251-debris",
        "lat": -71.89262407285938,
        "lon": -36.24180252745169,
        "alt_km": 707.3884253736951,
        "timestamp": "2025-12-12T09:49:09.130050+00:00",
        "meta_object_name": "COSMOS 2251 DEB",
        "meta_object_id": "1993-036BQP",
        "meta_epoch": "2025-12-11T12:56:23.685792",
        "meta_mean_motion": 14.6884503,
        "meta_eccentricity": 0.0063225,
        "meta_inclination": 74.0638,
        "meta_ra_of_asc_node": 26.3433,
        "meta_arg_of_pericenter": 64.1894,
        "meta_mean_anomaly": 296.578,
        "meta_ephemeris_type": 0,
        "meta_classification_type": "U",
        "meta_norad_cat_id": 37988,
        "meta_element_set_no": 999,
        "meta_rev_at_epoch": 23378,
        "meta_bstar": 0.0012641072,
        "meta_mean_motion_dot": 7.59e-05,
        "meta_mean_motion_ddot": 0,
        "tle_line1": "1 37988U 93036BQP 25345.53916303  .00007590  00000+0  12641-2 0  9991",
        "tle_line2": "2 37988  74.0638  26.3433 0063225  64.1894 296.5780 14.68845030233785"
      },
      "geometry": {
        "type": "Point",
        "coordinates": [
          -36.24180252745169,
          -71.89262407285938
        ]
      }
    },
    {
      "type": "Feature",
      "properties": {
        "norad_id": 37993,
        "name": "COSMOS 2251 DEB",
        "group": "cosmos-2251-debris",
        "lat": 62.49649609474032,
        "lon": -159.0631876776719,
        "alt_km": 702.4916003595408,
        "timestamp": "2025-12-12T09:49:09.130060+00:00",
        "meta_object_name": "COSMOS 2251 DEB",
        "meta_object_id": "1993-036BQU",
        "meta_epoch": "2025-12-09T05:51:24.736320",
        "meta_mean_motion": 14.59845478,
        "meta_eccentricity": 0.0022054,
        "meta_inclination": 74.0217,
        "meta_ra_of_asc_node": 173.5884,
        "meta_arg_of_pericenter": 262.4751,
        "meta_mean_anomaly": 97.3909,
        "meta_ephemeris_type": 0,
        "meta_classification_type": "U",
        "meta_norad_cat_id": 37993,
        "meta_element_set_no": 999,
        "meta_rev_at_epoch": 65266,
        "meta_bstar": 0.0017274,
        "meta_mean_motion_dot": 8.27e-05,
        "meta_mean_motion_ddot": 0,
        "tle_line1": "1 37993U 93036BQU 25343.24403630  .00008270  00000+0  17274-2 0  9990",
        "tle_line2": "2 37993  74.0217 173.5884 0022054 262.4751  97.3909 14.59845478652667"
      },
      "geometry": {
        "type": "Point",
        "coordinates": [
          -159.0631876776719,
          62.49649609474032
        ]
      }
    },
    {
      "type": "Feature",
      "properties": {
        "norad_id": 37994,
        "name": "COSMOS 2251 DEB",
        "group": "cosmos-2251-debris",
        "lat": 0.8987583558120374,
        "lon": 96.04177259104566,
        "alt_km": 778.5641019985633,
        "timestamp": "2025-12-12T09:49:09.130070+00:00",
        "meta_object_name": "COSMOS 2251 DEB",
        "meta_object_id": "1993-036BQV",
        "meta_epoch": "2025-12-12T03:59:14.039808",
        "meta_mean_motion": 14.3962136,
        "meta_eccentricity": 0.0022895,
        "meta_inclination": 74.0362,
        "meta_ra_of_asc_node": 276.7476,
        "meta_arg_of_pericenter": 356.2945,
        "meta_mean_anomaly": 3.8036,
        "meta_ephemeris_type": 0,
        "meta_classification_type": "U",
        "meta_norad_cat_id": 37994,
        "meta_element_set_no": 999,
        "meta_rev_at_epoch": 77056,
        "meta_bstar": 0.00057549,
        "meta_mean_motion_dot": 1.778e-05,
        "meta_mean_motion_ddot": 0,
        "tle_line1": "1 37994U 93036BQV 25346.16613472  .00001778  00000+0  57549-3 0  9998",
        "tle_line2": "2 37994  74.0362 276.7476 0022895 356.2945   3.8036 14.39621360770565"
      },
      "geometry": {
        "type": "Point",
        "coordinates": [
          96.04177259104566,
          0.8987583558120374
        ]
      }
    },
    {
      "type": "Feature",
      "properties": {
        "norad_id": 37996,
        "name": "COSMOS 2251 DEB",
        "group": "cosmos-2251-debris",
        "lat": 51.9255541265367,
        "lon": 2.3913449087614835,
        "alt_km": 1008.8121223332291,
        "timestamp": "2025-12-12T09:49:09.130081+00:00",
        "meta_object_name": "COSMOS 2251 DEB",
        "meta_object_id": "1993-036BQX",
        "meta_epoch": "2025-11-16T18:35:00.708864",
        "meta_mean_motion": 14.09591608,
        "meta_eccentricity": 0.02219827,
        "meta_inclination": 74.0658,
        "meta_ra_of_asc_node": 248.8308,
        "meta_arg_of_pericenter": 5.4709,
        "meta_mean_anomaly": 354.8776,
        "meta_ephemeris_type": 0,
        "meta_classification_type": "U",
        "meta_norad_cat_id": 37996,
        "meta_element_set_no": 999,
        "meta_rev_at_epoch": 55769,
        "meta_bstar": 0.0096790999,
        "meta_mean_motion_dot": 0.00021331,
        "meta_mean_motion_ddot": 0,
        "tle_line1": "1 37996U 93036BQX 25320.77431376  .00021331  00000+0  96791-2 0  9998",
        "tle_line2": "2 37996  74.0658 248.8308 0221982   5.4709 354.8776 14.09591608557693"
      },
      "geometry": {
        "type": "Point",
        "coordinates": [
          2.3913449087614835,
          51.9255541265367
        ]
      }
    },
    {
      "type": "Feature",
      "properties": {
        "norad_id": 37998,
        "name": "COSMOS 2251 DEB",
        "group": "cosmos-2251-debris",
        "lat": 67.86620873920594,
        "lon": -79.556053212986,
        "alt_km": 741.637601579042,
        "timestamp": "2025-12-12T09:49:09.130091+00:00",
        "meta_object_name": "COSMOS 2251 DEB",
        "meta_object_id": "1993-036BQZ",
        "meta_epoch": "2025-12-07T01:34:33.386016",
        "meta_mean_motion": 14.45444842,
        "meta_eccentricity": 0.00199405,
        "meta_inclination": 74.0387,
        "meta_ra_of_asc_node": 245.6796,
        "meta_arg_of_pericenter": 320.6712,
        "meta_mean_anomaly": 39.2997,
        "meta_ephemeris_type": 0,
        "meta_classification_type": "U",
        "meta_norad_cat_id": 37998,
        "meta_element_set_no": 999,
        "meta_rev_at_epoch": 64205,
        "meta_bstar": 0.00093558552,
        "meta_mean_motion_dot": 3.277e-05,
        "meta_mean_motion_ddot": 0,
        "tle_line1": "1 37998U 93036BQZ 25341.06566419  .00003277  00000+0  93559-3 0  9991",
        "tle_line2": "2 37998  74.0387 245.6796 0019940 320.6712  39.2997 14.45444842642056"
      },
      "geometry": {
        "type": "Point",
        "coordinates": [
          -79.556053212986,
          67.86620873920594
        ]
      }
    }
  ]
}